{
    "links": {
        "self": "http://www.neowsapp.com/rest/v1/neo/3765532?api_key=iIulBulltgU6a56xZRHN4H3l9WmuAYTsLGpBGhQ2"
    },
    "id": "3765532",
    "neo_reference_id": "3765532",
    "name": "(2016 XG1)",
    "designation": "2016 XG1",
    "nasa_jpl_url": "http://ssd.jpl.nasa.gov/sbdb.cgi?sstr=3765532",
    "absolute_magnitude_h": 21.9,
    "estimated_diameter": {
        "kilometers": {
            "estimated_diameter_min": 0.1108038821,
            "estimated_diameter_max": 0.2477650126
        },
        "meters": {
            "estimated_diameter_min": 110.8038821264,
            "estimated_diameter_max": 247.7650126055
        },
        "miles": {
            "estimated_diameter_min": 0.068850319,
            "estimated_diameter_max": 0.1539539936
        },
        "feet": {
            "estimated_diameter_min": 363.5298086356,
            "estimated_diameter_max": 812.8773639568
        }
    },
    "is_potentially_hazardous_asteroid": true,
    "close_approach_data": [
        {
            "close_approach_date": "2015-01-05",
            "close_approach_date_full": "2015-Jan-05 04:18",
            "epoch_date_close_approach": 1420431480000,
            "relative_velocity": {
                "kilometers_per_second": "42.6798228728",
                "kilometers_per_hour": "153647.3623422175",
                "miles_per_hour": "95470.4957842518"
            },
            "miss_distance": {
                "astronomical": "0.0700949729",
                "lunar": "27.2669444581",
                "kilometers": "10486058.643547723",
                "miles": "6515734.7024676574"
            },
            "orbiting_body": "Merc"
        },
        {
            "close_approach_date": "2016-08-10",
            "close_approach_date_full": "2016-Aug-10 04:37",
            "epoch_date_close_approach": 1470803820000,
            "relative_velocity": {
                "kilometers_per_second": "31.8009696297",
                "kilometers_per_hour": "114483.490666794",
                "miles_per_hour": "71135.5889645976"
            },
            "miss_distance": {
                "astronomical": "0.083157735",
                "lunar": "32.348358915",
                "kilometers": "12440220.03002445",
                "miles": "7729994.28205941"
            },
            "orbiting_body": "Venus"
        },
        {
            "close_approach_date": "2016-11-01",
            "close_approach_date_full": "2016-Nov-01 09:44",
            "epoch_date_close_approach": 1477993440000,
            "relative_velocity": {
                "kilometers_per_second": "17.3812336016",
                "kilometers_per_hour": "62572.4409658414",
                "miles_per_hour": "38880.0814434696"
            },
            "miss_distance": {
                "astronomical": "0.3608506261",
                "lunar": "140.3708935529",
                "kilometers": "53982485.052726407",
                "miles": "33543160.7947301366"
            },
            "orbiting_body": "Earth"
        }
    ],
    "orbital_data": {
        "orbit_id": "4",
        "orbit_determination_date": "2017-04-06 08:21:40",
        "first_observation_date": "2016-12-01",
        "last_observation_date": "2016-12-23",
        "data_arc_in_days": 22,
        "observations_used": 30,
        "orbit_uncertainty": "8",
        "minimum_orbit_intersection": ".0387668",
        "jupiter_tisserand_invariant": "4.322",
        "epoch_osculation": "2457743.5",
        "eccentricity": ".7684441823118584",
        "semi_major_axis": "1.419927888184795",
        "inclination": "10.30020118591205",
        "ascending_node_longitude": "62.40026029662126",
        "orbital_period": "618.01335550485",
        "perihelion_distance": ".3287925632068263",
        "perihelion_argument": "224.7647434809391",
        "aphelion_distance": "2.511063213162763",
        "perihelion_time": "2457637.887941493583",
        "mean_anomaly": "61.52025797444397",
        "mean_motion": ".5825116832724739",
        "equinox": "J2000",
        "orbit_class": {
            "orbit_class_type": "APO",
            "orbit_class_description": "Near-Earth asteroid orbits which cross the Earth’s orbit similar to that of 1862 Apollo",
            "orbit_class_range": "a (semi-major axis) > 1.0 AU; q (perihelion) < 1.017 AU"
        }
    },
    "is_sentry_object": false
}